[Satellite]
VERSION=1.1
NAME=STARLINK-1226
NICKNAME=STARLINK-1226
TLE1=1 45229U 20012BD  20078.25001157  .00225626  00000-0  24030-2 0  9999
TLE2=2 45229  53.0010 121.1797 0000369 330.9247 104.6976 15.62741714  5014
STATUS=0
